<?xml version="1.0" encoding="UTF-8"?>
<ndm xmlns:xsi="http://www.w3.org/2001/XMLSchema-instance" xsi:noNamespaceSchemaLocation="https://sanaregistry.org/r/ndmxml_unqualified/ndmxml-2.0.0-master-2.0.xsd">
<omm id="CCSDS_OMM_VERS" version="2.0">
<header><CREATION_DATE/><ORIGINATOR/></header><body><segment><metadata><OBJECT_NAME>ORBCOMM FM103</OBJECT_NAME><OBJECT_ID>2014-040F</OBJECT_ID><CENTER_NAME>EARTH</CENTER_NAME><REF_FRAME>TEME</REF_FRAME><TIME_SYSTEM>UTC</TIME_SYSTEM><MEAN_ELEMENT_THEORY>SGP4</MEAN_ELEMENT_THEORY></metadata><data><meanElements><EPOCH>2024-09-29T17:43:10.455744</EPOCH><MEAN_MOTION>14.57127010</MEAN_MOTION><ECCENTRICITY>.0001878</ECCENTRICITY><INCLINATION>47.0041</INCLINATION><RA_OF_ASC_NODE>166.9818</RA_OF_ASC_NODE><ARG_OF_PERICENTER>175.0644</ARG_OF_PERICENTER><MEAN_ANOMALY>185.0260</MEAN_ANOMALY></meanElements><tleParameters><EPHEMERIS_TYPE>0</EPHEMERIS_TYPE><CLASSIFICATION_TYPE>U</CLASSIFICATION_TYPE><NORAD_CAT_ID>40091</NORAD_CAT_ID><ELEMENT_SET_NO>999</ELEMENT_SET_NO><REV_AT_EPOCH>54316</REV_AT_EPOCH><BSTAR>.59151E-3</BSTAR><MEAN_MOTION_DOT>.2525E-4</MEAN_MOTION_DOT><MEAN_MOTION_DDOT>0</MEAN_MOTION_DDOT></tleParameters></data></segment></body></omm>
<omm id="CCSDS_OMM_VERS" version="2.0">
<header><CREATION_DATE/><ORIGINATOR/></header><body><segment><metadata><OBJECT_NAME>ORBCOMM FM114</OBJECT_NAME><OBJECT_ID>2015-081A</OBJECT_ID><CENTER_NAME>EARTH</CENTER_NAME><REF_FRAME>TEME</REF_FRAME><TIME_SYSTEM>UTC</TIME_SYSTEM><MEAN_ELEMENT_THEORY>SGP4</MEAN_ELEMENT_THEORY></metadata><data><meanElements><EPOCH>2024-09-29T21:43:04.914336</EPOCH><MEAN_MOTION>14.57089039</MEAN_MOTION><ECCENTRICITY>.00031</ECCENTRICITY><INCLINATION>47.0009</INCLINATION><RA_OF_ASC_NODE>75.3943</RA_OF_ASC_NODE><ARG_OF_PERICENTER>237.4733</ARG_OF_PERICENTER><MEAN_ANOMALY>122.5853</MEAN_ANOMALY></meanElements><tleParameters><EPHEMERIS_TYPE>0</EPHEMERIS_TYPE><CLASSIFICATION_TYPE>U</CLASSIFICATION_TYPE><NORAD_CAT_ID>41179</NORAD_CAT_ID><ELEMENT_SET_NO>999</ELEMENT_SET_NO><REV_AT_EPOCH>46649</REV_AT_EPOCH><BSTAR>.86E-3</BSTAR><MEAN_MOTION_DOT>.3745E-4</MEAN_MOTION_DOT><MEAN_MOTION_DDOT>0</MEAN_MOTION_DDOT></tleParameters></data></segment></body></omm>
<omm id="CCSDS_OMM_VERS" version="2.0">
<header><CREATION_DATE/><ORIGINATOR/></header><body><segment><metadata><OBJECT_NAME>ORBCOMM FM119</OBJECT_NAME><OBJECT_ID>2015-081B</OBJECT_ID><CENTER_NAME>EARTH</CENTER_NAME><REF_FRAME>TEME</REF_FRAME><TIME_SYSTEM>UTC</TIME_SYSTEM><MEAN_ELEMENT_THEORY>SGP4</MEAN_ELEMENT_THEORY></metadata><data><meanElements><EPOCH>2024-09-29T21:08:30.321600</EPOCH><MEAN_MOTION>14.57108778</MEAN_MOTION><ECCENTRICITY>.0002263</ECCENTRICITY><INCLINATION>47.0016</INCLINATION><RA_OF_ASC_NODE>344.7375</RA_OF_ASC_NODE><ARG_OF_PERICENTER>286.9841</ARG_OF_PERICENTER><MEAN_ANOMALY>73.0796</MEAN_ANOMALY></meanElements><tleParameters><EPHEMERIS_TYPE>0</EPHEMERIS_TYPE><CLASSIFICATION_TYPE>U</CLASSIFICATION_TYPE><NORAD_CAT_ID>41180</NORAD_CAT_ID><ELEMENT_SET_NO>999</ELEMENT_SET_NO><REV_AT_EPOCH>46774</REV_AT_EPOCH><BSTAR>.60298E-3</BSTAR><MEAN_MOTION_DOT>.2576E-4</MEAN_MOTION_DOT><MEAN_MOTION_DDOT>0</MEAN_MOTION_DDOT></tleParameters></data></segment></body></omm>
<omm id="CCSDS_OMM_VERS" version="2.0">
<header><CREATION_DATE/><ORIGINATOR/></header><body><segment><metadata><OBJECT_NAME>ORBCOMM FM105</OBJECT_NAME><OBJECT_ID>2015-081C</OBJECT_ID><CENTER_NAME>EARTH</CENTER_NAME><REF_FRAME>TEME</REF_FRAME><TIME_SYSTEM>UTC</TIME_SYSTEM><MEAN_ELEMENT_THEORY>SGP4</MEAN_ELEMENT_THEORY></metadata><data><meanElements><EPOCH>2024-09-29T19:46:43.777920</EPOCH><MEAN_MOTION>14.44673813</MEAN_MOTION><ECCENTRICITY>.000255</ECCENTRICITY><INCLINATION>47.0027</INCLINATION><RA_OF_ASC_NODE>325.0547</RA_OF_ASC_NODE><ARG_OF_PERICENTER>246.5749</ARG_OF_PERICENTER><MEAN_ANOMALY>113.4864</MEAN_ANOMALY></meanElements><tleParameters><EPHEMERIS_TYPE>0</EPHEMERIS_TYPE><CLASSIFICATION_TYPE>U</CLASSIFICATION_TYPE><NORAD_CAT_ID>41181</NORAD_CAT_ID><ELEMENT_SET_NO>999</ELEMENT_SET_NO><REV_AT_EPOCH>46309</REV_AT_EPOCH><BSTAR>.39034E-3</BSTAR><MEAN_MOTION_DOT>.1208E-4</MEAN_MOTION_DOT><MEAN_MOTION_DDOT>0</MEAN_MOTION_DDOT></tleParameters></data></segment></body></omm>
<omm id="CCSDS_OMM_VERS" version="2.0">
<header><CREATION_DATE/><ORIGINATOR/></header><body><segment><metadata><OBJECT_NAME>ORBCOMM FM110</OBJECT_NAME><OBJECT_ID>2015-081D</OBJECT_ID><CENTER_NAME>EARTH</CENTER_NAME><REF_FRAME>TEME</REF_FRAME><TIME_SYSTEM>UTC</TIME_SYSTEM><MEAN_ELEMENT_THEORY>SGP4</MEAN_ELEMENT_THEORY></metadata><data><meanElements><EPOCH>2024-09-29T21:08:46.359168</EPOCH><MEAN_MOTION>14.57077630</MEAN_MOTION><ECCENTRICITY>.0000776</ECCENTRICITY><INCLINATION>47.0007</INCLINATION><RA_OF_ASC_NODE>74.8906</RA_OF_ASC_NODE><ARG_OF_PERICENTER>343.9909</ARG_OF_PERICENTER><MEAN_ANOMALY>16.0951</MEAN_ANOMALY></meanElements><tleParameters><EPHEMERIS_TYPE>0</EPHEMERIS_TYPE><CLASSIFICATION_TYPE>U</CLASSIFICATION_TYPE><NORAD_CAT_ID>41182</NORAD_CAT_ID><ELEMENT_SET_NO>999</ELEMENT_SET_NO><REV_AT_EPOCH>46636</REV_AT_EPOCH><BSTAR>.74093E-3</BSTAR><MEAN_MOTION_DOT>.3202E-4</MEAN_MOTION_DOT><MEAN_MOTION_DDOT>0</MEAN_MOTION_DDOT></tleParameters></data></segment></body></omm>
<omm id="CCSDS_OMM_VERS" version="2.0">
<header><CREATION_DATE/><ORIGINATOR/></header><body><segment><metadata><OBJECT_NAME>ORBCOMM FM118</OBJECT_NAME><OBJECT_ID>2015-081E</OBJECT_ID><CENTER_NAME>EARTH</CENTER_NAME><REF_FRAME>TEME</REF_FRAME><TIME_SYSTEM>UTC</TIME_SYSTEM><MEAN_ELEMENT_THEORY>SGP4</MEAN_ELEMENT_THEORY></metadata><data><meanElements><EPOCH>2024-09-29T20:37:16.264992</EPOCH><MEAN_MOTION>14.57073899</MEAN_MOTION><ECCENTRICITY>.000102</ECCENTRICITY><INCLINATION>47.0029</INCLINATION><RA_OF_ASC_NODE>75.3374</RA_OF_ASC_NODE><ARG_OF_PERICENTER>5.7826</ARG_OF_PERICENTER><MEAN_ANOMALY>354.3071</MEAN_ANOMALY></meanElements><tleParameters><EPHEMERIS_TYPE>0</EPHEMERIS_TYPE><CLASSIFICATION_TYPE>U</CLASSIFICATION_TYPE><NORAD_CAT_ID>41183</NORAD_CAT_ID><ELEMENT_SET_NO>999</ELEMENT_SET_NO><REV_AT_EPOCH>46646</REV_AT_EPOCH><BSTAR>.58495E-3</BSTAR><MEAN_MOTION_DOT>.2492E-4</MEAN_MOTION_DOT><MEAN_MOTION_DDOT>0</MEAN_MOTION_DDOT></tleParameters></data></segment></body></omm>
<omm id="CCSDS_OMM_VERS" version="2.0">
<header><CREATION_DATE/><ORIGINATOR/></header><body><segment><metadata><OBJECT_NAME>ORBCOMM FM112</OBJECT_NAME><OBJECT_ID>2015-081F</OBJECT_ID><CENTER_NAME>EARTH</CENTER_NAME><REF_FRAME>TEME</REF_FRAME><TIME_SYSTEM>UTC</TIME_SYSTEM><MEAN_ELEMENT_THEORY>SGP4</MEAN_ELEMENT_THEORY></metadata><data><meanElements><EPOCH>2024-09-29T22:14:48.178464</EPOCH><MEAN_MOTION>14.57088618</MEAN_MOTION><ECCENTRICITY>.0002705</ECCENTRICITY><INCLINATION>46.9995</INCLINATION><RA_OF_ASC_NODE>343.7188</RA_OF_ASC_NODE><ARG_OF_PERICENTER>276.0823</ARG_OF_PERICENTER><MEAN_ANOMALY>83.9753</MEAN_ANOMALY></meanElements><tleParameters><EPHEMERIS_TYPE>0</EPHEMERIS_TYPE><CLASSIFICATION_TYPE>U</CLASSIFICATION_TYPE><NORAD_CAT_ID>41184</NORAD_CAT_ID><ELEMENT_SET_NO>999</ELEMENT_SET_NO><REV_AT_EPOCH>46769</REV_AT_EPOCH><BSTAR>.86516E-3</BSTAR><MEAN_MOTION_DOT>.3769E-4</MEAN_MOTION_DOT><MEAN_MOTION_DDOT>0</MEAN_MOTION_DDOT></tleParameters></data></segment></body></omm>
<omm id="CCSDS_OMM_VERS" version="2.0">
<header><CREATION_DATE/><ORIGINATOR/></header><body><segment><metadata><OBJECT_NAME>ORBCOMM FM113</OBJECT_NAME><OBJECT_ID>2015-081G</OBJECT_ID><CENTER_NAME>EARTH</CENTER_NAME><REF_FRAME>TEME</REF_FRAME><TIME_SYSTEM>UTC</TIME_SYSTEM><MEAN_ELEMENT_THEORY>SGP4</MEAN_ELEMENT_THEORY></metadata><data><meanElements><EPOCH>2024-09-29T15:06:43.565760</EPOCH><MEAN_MOTION>14.57083733</MEAN_MOTION><ECCENTRICITY>.0002342</ECCENTRICITY><INCLINATION>47.0017</INCLINATION><RA_OF_ASC_NODE>345.4076</RA_OF_ASC_NODE><ARG_OF_PERICENTER>288.9650</ARG_OF_PERICENTER><MEAN_ANOMALY>71.0981</MEAN_ANOMALY></meanElements><tleParameters><EPHEMERIS_TYPE>0</EPHEMERIS_TYPE><CLASSIFICATION_TYPE>U</CLASSIFICATION_TYPE><NORAD_CAT_ID>41185</NORAD_CAT_ID><ELEMENT_SET_NO>999</ELEMENT_SET_NO><REV_AT_EPOCH>46763</REV_AT_EPOCH><BSTAR>.77519E-3</BSTAR><MEAN_MOTION_DOT>.3359E-4</MEAN_MOTION_DOT><MEAN_MOTION_DDOT>0</MEAN_MOTION_DDOT></tleParameters></data></segment></body></omm>

</ndm>
