ORBCOMM FM103           
1 40091U 14040F   24273.73831546  .00002525  00000+0  59151-3 0  9995
2 40091  47.0041 166.9818 0001878 175.0644 185.0260 14.57127010543161
ORBCOMM FM114           
1 41179U 15081A   24273.90491799  .00003745  00000+0  86000-3 0  9998
2 41179  47.0009  75.3943 0003100 237.4733 122.5853 14.57089039466499
ORBCOMM FM119           
1 41180U 15081B   24273.88090650  .00002576  00000+0  60298-3 0  9990
2 41180  47.0016 344.7375 0002263 286.9841  73.0796 14.57108778467746
ORBCOMM FM105           
1 41181U 15081C   24273.82411780  .00001208  00000+0  39034-3 0  9991
2 41181  47.0027 325.0547 0002550 246.5749 113.4864 14.44673813463092
ORBCOMM FM110           
1 41182U 15081D   24273.88109212  .00003202  00000+0  74093-3 0  9992
2 41182  47.0007  74.8906 0000776 343.9909  16.0951 14.57077630466364
ORBCOMM FM118           
1 41183U 15081E   24273.85921603  .00002492  00000+0  58495-3 0  9994
2 41183  47.0029  75.3374 0001020   5.7826 354.3071 14.57073899466463
ORBCOMM FM112           
1 41184U 15081F   24273.92694651  .00003769  00000+0  86516-3 0  9996
2 41184  46.9995 343.7188 0002705 276.0823  83.9753 14.57088618467693
ORBCOMM FM113           
1 41185U 15081G   24273.62967090  .00003359  00000+0  77519-3 0  9992
2 41185  47.0017 345.4076 0002342 288.9650  71.0981 14.57083733467631
